[{"OBJECT_NAME":"KUIPER-00218","OBJECT_ID":"2026-030S","EPOCH":"2026-03-09T15:22:12.930816","MEAN_MOTION":15.35202151,"ECCENTRICITY":0.0006939,"INCLINATION":51.8829,"RA_OF_ASC_NODE":219.4934,"ARG_OF_PERICENTER":50.9637,"MEAN_ANOMALY":309.1966,"EPHEMERIS_TYPE":0,"CLASSIFICATION_TYPE":"U","NORAD_CAT_ID":67780,"ELEMENT_SET_NO":999,"REV_AT_EPOCH":508,"BSTAR":0.00064584,"MEAN_MOTION_DOT":0.00022104,"MEAN_MOTION_DDOT":0},{"OBJECT_NAME":"KUIPER-00220","OBJECT_ID":"2026-030T","EPOCH":"2026-03-09T17:06:26.319168","MEAN_MOTION":15.34795258,"ECCENTRICITY":0.000905,"INCLINATION":51.8809,"RA_OF_ASC_NODE":219.2195,"ARG_OF_PERICENTER":53.923,"MEAN_ANOMALY":306.2592,"EPHEMERIS_TYPE":0,"CLASSIFICATION_TYPE":"U","NORAD_CAT_ID":67781,"ELEMENT_SET_NO":999,"REV_AT_EPOCH":509,"BSTAR":0.0010498,"MEAN_MOTION_DOT":0.00035785,"MEAN_MOTION_DDOT":0},{"OBJECT_NAME":"KUIPER-00222","OBJECT_ID":"2026-030U","EPOCH":"2026-03-09T16:13:57.726048","MEAN_MOTION":15.32445377,"ECCENTRICITY":0.00128,"INCLINATION":51.8817,"RA_OF_ASC_NODE":219.7147,"ARG_OF_PERICENTER":40.1845,"MEAN_ANOMALY":320.0084,"EPHEMERIS_TYPE":0,"CLASSIFICATION_TYPE":"U","NORAD_CAT_ID":67782,"ELEMENT_SET_NO":999,"REV_AT_EPOCH":508,"BSTAR":0.0017317,"MEAN_MOTION_DOT":0.00055223,"MEAN_MOTION_DDOT":0},{"OBJECT_NAME":"KUIPER-00223","OBJECT_ID":"2026-030V","EPOCH":"2026-03-09T17:18:46.022400","MEAN_MOTION":15.3414621,"ECCENTRICITY":0.0012824,"INCLINATION":51.8827,"RA_OF_ASC_NODE":219.2782,"ARG_OF_PERICENTER":59.0052,"MEAN_ANOMALY":301.2192,"EPHEMERIS_TYPE":0,"CLASSIFICATION_TYPE":"U","NORAD_CAT_ID":67783,"ELEMENT_SET_NO":999,"REV_AT_EPOCH":509,"BSTAR":0.00090645,"MEAN_MOTION_DOT":0.00030225,"MEAN_MOTION_DDOT":0},{"OBJECT_NAME":"KUIPER-00225","OBJECT_ID":"2026-030W","EPOCH":"2026-03-09T16:40:08.528160","MEAN_MOTION":15.35937709,"ECCENTRICITY":0.0004458,"INCLINATION":51.8808,"RA_OF_ASC_NODE":219.1029,"ARG_OF_PERICENTER":39.1442,"MEAN_ANOMALY":320.9866,"EPHEMERIS_TYPE":0,"CLASSIFICATION_TYPE":"U","NORAD_CAT_ID":67784,"ELEMENT_SET_NO":999,"REV_AT_EPOCH":509,"BSTAR":0.0007161,"MEAN_MOTION_DOT":0.00025142,"MEAN_MOTION_DDOT":0},{"OBJECT_NAME":"KUIPER-00226","OBJECT_ID":"2026-030X","EPOCH":"2026-03-09T15:01:51.726432","MEAN_MOTION":15.30655594,"ECCENTRICITY":0.0017713,"INCLINATION":51.8814,"RA_OF_ASC_NODE":220.1252,"ARG_OF_PERICENTER":64.2781,"MEAN_ANOMALY":296.003,"EPHEMERIS_TYPE":0,"CLASSIFICATION_TYPE":"U","NORAD_CAT_ID":67785,"ELEMENT_SET_NO":999,"REV_AT_EPOCH":507,"BSTAR":0.001553,"MEAN_MOTION_DOT":0.00046834,"MEAN_MOTION_DDOT":0},{"OBJECT_NAME":"KUIPER-00259","OBJECT_ID":"2026-030Y","EPOCH":"2026-03-09T16:59:17.897856","MEAN_MOTION":15.3511217,"ECCENTRICITY":0.0008588,"INCLINATION":51.8804,"RA_OF_ASC_NODE":219.1883,"ARG_OF_PERICENTER":48.4056,"MEAN_ANOMALY":311.7664,"EPHEMERIS_TYPE":0,"CLASSIFICATION_TYPE":"U","NORAD_CAT_ID":67786,"ELEMENT_SET_NO":999,"REV_AT_EPOCH":509,"BSTAR":0.0010952,"MEAN_MOTION_DOT":0.00037736,"MEAN_MOTION_DDOT":0},{"OBJECT_NAME":"KUIPER-00260","OBJECT_ID":"2026-030Z","EPOCH":"2026-03-09T14:53:08.171808","MEAN_MOTION":15.36527197,"ECCENTRICITY":0.0001391,"INCLINATION":51.8799,"RA_OF_ASC_NODE":219.3544,"ARG_OF_PERICENTER":50.4119,"MEAN_ANOMALY":309.699,"EPHEMERIS_TYPE":0,"CLASSIFICATION_TYPE":"U","NORAD_CAT_ID":67787,"ELEMENT_SET_NO":999,"REV_AT_EPOCH":499,"BSTAR":0.00095058,"MEAN_MOTION_DOT":0.00034182,"MEAN_MOTION_DDOT":0},{"OBJECT_NAME":"KUIPER-00262","OBJECT_ID":"2026-030AA","EPOCH":"2026-03-09T16:20:50.451936","MEAN_MOTION":15.36709745,"ECCENTRICITY":3.54e-5,"INCLINATION":51.8818,"RA_OF_ASC_NODE":219.0179,"ARG_OF_PERICENTER":64.0282,"MEAN_ANOMALY":296.0741,"EPHEMERIS_TYPE":0,"CLASSIFICATION_TYPE":"U","NORAD_CAT_ID":67788,"ELEMENT_SET_NO":999,"REV_AT_EPOCH":509,"BSTAR":0.00076511,"MEAN_MOTION_DOT":0.00027576,"MEAN_MOTION_DDOT":0},{"OBJECT_NAME":"KUIPER-00266","OBJECT_ID":"2026-030AB","EPOCH":"2026-03-08T21:54:37.698048","MEAN_MOTION":15.30874235,"ECCENTRICITY":0.0022313,"INCLINATION":51.8807,"RA_OF_ASC_NODE":223.5904,"ARG_OF_PERICENTER":72.5291,"MEAN_ANOMALY":287.8129,"EPHEMERIS_TYPE":0,"CLASSIFICATION_TYPE":"U","NORAD_CAT_ID":67789,"ELEMENT_SET_NO":999,"REV_AT_EPOCH":496,"BSTAR":0.00098219753,"MEAN_MOTION_DOT":0.00029701,"MEAN_MOTION_DDOT":0},{"OBJECT_NAME":"KUIPER-00268","OBJECT_ID":"2026-030AC","EPOCH":"2026-03-09T15:02:25.520928","MEAN_MOTION":15.36041233,"ECCENTRICITY":0.0002948,"INCLINATION":51.8839,"RA_OF_ASC_NODE":219.4073,"ARG_OF_PERICENTER":35.5768,"MEAN_ANOMALY":324.5415,"EPHEMERIS_TYPE":0,"CLASSIFICATION_TYPE":"U","NORAD_CAT_ID":67790,"ELEMENT_SET_NO":999,"REV_AT_EPOCH":508,"BSTAR":0.0010186,"MEAN_MOTION_DOT":0.00036094,"MEAN_MOTION_DDOT":0},{"OBJECT_NAME":"KUIPER-00270","OBJECT_ID":"2026-030AD","EPOCH":"2026-03-09T18:42:34.651008","MEAN_MOTION":15.3468042,"ECCENTRICITY":0.001068,"INCLINATION":51.8805,"RA_OF_ASC_NODE":218.9166,"ARG_OF_PERICENTER":56.4163,"MEAN_ANOMALY":303.7841,"EPHEMERIS_TYPE":0,"CLASSIFICATION_TYPE":"U","NORAD_CAT_ID":67791,"ELEMENT_SET_NO":999,"REV_AT_EPOCH":510,"BSTAR":0.00093017,"MEAN_MOTION_DOT":0.00031543,"MEAN_MOTION_DDOT":0},{"OBJECT_NAME":"KUIPER-00274","OBJECT_ID":"2026-030AE","EPOCH":"2026-03-09T20:00:00.999360","MEAN_MOTION":15.29881196,"ECCENTRICITY":0.001826,"INCLINATION":51.8833,"RA_OF_ASC_NODE":219.0909,"ARG_OF_PERICENTER":70.8809,"MEAN_ANOMALY":16.2226,"EPHEMERIS_TYPE":0,"CLASSIFICATION_TYPE":"U","NORAD_CAT_ID":67792,"ELEMENT_SET_NO":999,"REV_AT_EPOCH":409,"BSTAR":0.0022302,"MEAN_MOTION_DOT":0.00065999,"MEAN_MOTION_DDOT":0},{"OBJECT_NAME":"KUIPER-00275","OBJECT_ID":"2026-030AF","EPOCH":"2026-03-09T17:04:44.259168","MEAN_MOTION":15.34756533,"ECCENTRICITY":0.0009337,"INCLINATION":51.8837,"RA_OF_ASC_NODE":219.2226,"ARG_OF_PERICENTER":52.8442,"MEAN_ANOMALY":307.3395,"EPHEMERIS_TYPE":0,"CLASSIFICATION_TYPE":"U","NORAD_CAT_ID":67793,"ELEMENT_SET_NO":999,"REV_AT_EPOCH":509,"BSTAR":0.000957,"MEAN_MOTION_DOT":0.00032535,"MEAN_MOTION_DDOT":0},{"OBJECT_NAME":"KUIPER-00276","OBJECT_ID":"2026-030AG","EPOCH":"2026-03-09T20:00:00.999360","MEAN_MOTION":15.30163879,"ECCENTRICITY":0.001889,"INCLINATION":51.8826,"RA_OF_ASC_NODE":219.127,"ARG_OF_PERICENTER":67.2489,"MEAN_ANOMALY":1.3989,"EPHEMERIS_TYPE":0,"CLASSIFICATION_TYPE":"U","NORAD_CAT_ID":67794,"ELEMENT_SET_NO":999,"REV_AT_EPOCH":481,"BSTAR":0.0026027,"MEAN_MOTION_DOT":0.00077912,"MEAN_MOTION_DDOT":0},{"OBJECT_NAME":"KUIPER-00279","OBJECT_ID":"2026-030AH","EPOCH":"2026-03-09T15:18:32.160672","MEAN_MOTION":15.35417463,"ECCENTRICITY":0.0006492,"INCLINATION":51.8796,"RA_OF_ASC_NODE":219.4677,"ARG_OF_PERICENTER":47.8727,"MEAN_ANOMALY":312.281,"EPHEMERIS_TYPE":0,"CLASSIFICATION_TYPE":"U","NORAD_CAT_ID":67795,"ELEMENT_SET_NO":999,"REV_AT_EPOCH":508,"BSTAR":0.00063535,"MEAN_MOTION_DOT":0.00021889,"MEAN_MOTION_DDOT":0},{"OBJECT_NAME":"CREW DRAGON 12","OBJECT_ID":"2026-031A","EPOCH":"2026-03-09T16:57:57.785184","MEAN_MOTION":15.485472,"ECCENTRICITY":0.000802,"INCLINATION":51.6323,"RA_OF_ASC_NODE":72.271,"ARG_OF_PERICENTER":174.6781,"MEAN_ANOMALY":185.4294,"EPHEMERIS_TYPE":0,"CLASSIFICATION_TYPE":"U","NORAD_CAT_ID":67796,"ELEMENT_SET_NO":999,"REV_AT_EPOCH":55622,"BSTAR":0.0001551,"MEAN_MOTION_DOT":7.976e-5,"MEAN_MOTION_DDOT":0}]
